#cP2023  7 17  0  0  0.00000000      96 ORBIT IGS20 HLM  IGS
## 2271  86400.00000000   900.00000000 60142 0.0000000000000
+   32   G01G02G03G04G05G06G07G08G09G10G11G12G13G14G15G16G17
+        G18G19G20G21G22G23G24G25G26G27G28G29G30G31G32  0  0
+          0  0  0  0  0  0  0  0  0  0  0  0  0  0  0  0  0
+          0  0  0  0  0  0  0  0  0  0  0  0  0  0  0  0  0
+          0  0  0  0  0  0  0  0  0  0  0  0  0  0  0  0  0
++         2  2  2  2  2  2  2  3  2  2  2  2  2  2  2  2  2
++         2  2  2  2  2  2  2  2  2  3  2  2  2  2  2  0  0
++         0  0  0  0  0  0  0  0  0  0  0  0  0  0  0  0  0
++         0  0  0  0  0  0  0  0  0  0  0  0  0  0  0  0  0
++         0  0  0  0  0  0  0  0  0  0  0  0  0  0  0  0  0
%c G  cc GPS ccc cccc cccc cccc cccc ccccc ccccc ccccc ccccc
%c cc cc ccc ccc cccc cccc cccc cccc ccccc ccccc ccccc ccccc
%f  1.2500000  1.025000000  0.00000000000  0.000000000000000
%f  0.0000000  0.000000000  0.00000000000  0.000000000000000
%i    0    0    0    0      0      0      0      0         0
%i    0    0    0    0      0      0      0      0         0
/* RAPID ORBIT COMBINATION FROM WEIGHTED AVERAGE OF:        
/* cod emr esa gfz grg jgx jpl ngs sio usn whu              
/* REFERENCED TO IGS TIME (IGST) AND TO WEIGHTED MEAN POLE: 
/* PCV:IGS20      OL/AL:FES2014b NONE     Y  ORB:CMB CLK:CMB
*  2023  7 17  4 30  0.00000000
PG01 -16680.646371 -13914.325637 -15860.341207    172.640325  7  7  8  78       
PG02 -11168.451827 -14226.247180 -18999.249758   -575.371869  6  8  4 109       
PG03 -12826.180709 -22283.543673   6762.248026   -229.282902  7  6  5 107       
PG04  -8958.617336 -12521.774876  21642.996628     97.998675  3  6  5 107       
PG05   3926.977873  24750.227659   8450.194273   -135.196110  5  5  6 108       
PG06 -20712.811636   6426.941133  15457.883919    577.166439  6  6  5  83       
PG07 -25924.424613  -6565.376477   2568.488632    122.877737  4  5  6  84       
PG08    726.438724 -20196.820357 -17099.990923   -132.577468  8  7  5 114       
PG09 -16368.387549  -2886.603298  20648.751882   -110.305246  7  5  4 107       
PG10  13780.493159  -5175.482345 -21927.757134    -45.474827  6  6  5 115       
PG11  -6509.493642  13898.302773  21680.759087   -279.372886  5  8  4  75       
PG12   9455.054739  24583.247789   3448.930071   -401.634096  6  8  6 108       
PG13 -10056.426250  20911.453704 -12910.739296    548.117624  7  8  4  90       
PG14 -15604.288243   1734.285392 -21417.271296    124.730029  5  7  6 127       
PG15   2683.141841  20122.058367 -17467.663957     58.745586  3  4  3  74       
PG16   2073.109887 -23453.128895  11528.489814   -479.864381  4  6  7 104       
PG17 -21165.200055  12162.471969 -10161.062843    721.094129  6  9  6 109       
PG18  26240.202738   4584.999918   -885.847544   -348.407494  6  7  6  83       
PG19 -20587.635694  16095.788837  -3844.327873    344.931009  6  6  6 123       
PG20  -2480.904725  20349.450968  17020.725321    422.257796  5  6  6 109       
PG21  -8804.789090 -14764.449322 -19937.875027    152.052510  5  8  4 100       
PG22  18613.670120 -18821.878918    151.519214    513.861107    10  4 102       
PG23  16939.696444   8248.162858 -18782.534069     44.120423  5  6  6  96       
PG24  12986.395095  14797.992728 -18375.122439   -260.302299  5  5  5 112       
PG25  16328.453681  15752.864663  13708.068720    456.578152  5  5  5 103       
PG26   8757.628718 -15660.697882  19359.846345    236.216774  5  4  6  86       
PG27  11115.655481 -22424.588392  -8495.110005     -4.642783  8 10  4  86       
PG28  21895.417974  -6433.128229  13567.344520     82.234002  5  7  5  77       
PG29  15038.946141   5186.110546  21235.661352   -605.689933  7  5  5  80       
PG30 -25690.675792    549.592162  -7121.864413   -503.710603  4  3  5 111       
PG31  12850.635686 -11833.357430  19945.417600   -220.201229  5  6  5  83       
PG32  20050.869222 -14966.695378  -8430.111314   -522.655535  4  8  4 107       
*  2023  7 17  4 45  0.00000000
PG01 -14843.549293 -13699.662452 -17768.571818    172.638779  7  7  8  74       
PG02  -8830.252987 -14181.122749 -20181.505130   -575.368231  6  8  3  70       
PG03 -12882.701638 -22935.371475   3962.847589   -229.268487  7  6  5 105       
PG04  -7340.124962 -14353.804160  21097.703575     98.008467  3  6  5 103       
PG05   3252.281488  23804.134253  11020.291308   -135.197244  5  6  6 105       
PG06 -22299.110362   6053.396205  13242.185677    577.163164  6  6  5  83       
PG07 -25498.749338  -6746.010177   5327.619637    122.867793  4  5  5 103       
PG08   1987.568571 -21563.971391 -15181.930210   -132.580063  8  7  5  84       
PG09 -14963.984127  -4856.335036  21327.425341   -110.296782  7  5  4 102       
PG10  14720.982267  -2823.753434 -21773.870602    -45.476635  6  6  5 110       
PG11  -8902.411805  13379.501724  21146.091389   -279.387533  5  7  3  68       
PG12   9307.444524  24904.628403    601.567702   -401.638178  5  8  6  98       
PG13 -11148.074160  21677.034012 -10469.523105    548.121934  6  8  4  74       
PG14 -16389.161501   -563.109719 -20902.388606    124.740876  5  7  6 117       
PG15   1576.574163  21601.170592 -15674.278133     58.748944  3  5  3  72       
PG16   2731.764515 -22071.317813  13865.812023   -479.860457  5  6  6 103       
PG17 -20401.580752  11023.771748 -12612.309701    721.094653  5  9  5 114       
PG18  26145.097587   4777.689541   1984.800302   -348.420205  6  6  6  90       
PG19 -20350.349944  15515.316943  -6658.819479    344.935671  6  5  6 121       
PG20  -3668.839698  18696.599833  18613.153929    422.256049  5  6  6 111       
PG21  -6381.969827 -14675.934008 -20802.983732    152.052078  5  8  4  86       
PG22  18671.593299 -18499.224601  -2713.587503    513.865950  1 10  3  79       
PG23  17645.126248  10173.028106 -17130.504397     44.124235  5  5  5 103       
PG24  10877.223289  14810.400019 -19676.009086   -260.313319  4  5  4 104       
PG25  16691.151669  17199.295700  11415.250978    456.580274  5  5  5  85       
PG26   9881.647837 -13634.731394  20352.036131    236.215691  5  4  6  92       
PG27  11802.082973 -22896.222061  -5761.250024     -4.649466  8 10  4  75       
PG28  23285.204319  -6068.754778  11221.797223     82.232605  6  7  5  99       
PG29  13396.005751   7026.858913  21788.796046   -605.690678  7  5  5  91       
PG30 -26310.689590    153.323721  -4437.802079   -503.708103  4  4  5 101       
PG31  15037.860448 -11357.923644  18701.672929   -220.201786  5  6  5  85       
PG32  19548.153969 -13913.403424 -10991.343463   -522.662442  3  8  4 106       
*  2023  7 17  5  0  0.00000000
PG01 -12801.655799 -13571.716132 -19382.524353    172.637315  7  7  7  73       
PG02  -6373.635858 -14257.591571 -21001.955393   -575.364734  6  8  3  80       
PG03 -12839.944421 -23291.618969   1095.547710   -229.254038  7  6  5 107       
PG04  -5868.602255 -16203.157360  20189.062196     98.018292  4  6  6 105       
PG05   2396.357375  22644.898041  13397.955908   -135.198496  5  6  6 107       
PG06 -23641.726272   5794.926801  10800.420262    577.159945  6  5  4  86       
PG07 -24783.399125  -6918.877299   7998.594987    122.857869  4  5  6 108       
PG08   3051.429003 -22800.360765 -12999.262055   -132.582178  8  7  4  98       
PG09 -13631.046791  -6942.646249  21636.714066   -110.288391  7  4  4 111       
PG10  15770.557309   -565.600981 -21239.977230    -45.478070  6  6  5 116       
PG11 -11239.380314  12998.619628  20247.553111   -279.402187  5  7  3  84       
PG12   9062.947041  24931.374107  -2256.134666   -401.642332  5  8  6 105       
PG13 -12004.343554  22289.046238  -7847.501373    548.126625  6  8  3  57       
PG14 -17256.794205  -2744.639666 -20028.132147    124.751653  4  7  6 120       
PG15    635.580279  22942.823229 -13616.430305     58.752090  3  6  4  88       
PG16   3548.217299 -20485.611325  15954.785266   -479.856487  5  5  6  97       
PG17 -19533.977755   9631.842139 -14842.431119    721.095282  4  8  6 113       
PG18  25740.032115   4942.317978   4821.635725   -348.432940  6  6  6  81       
PG19 -19937.767411  14687.915937  -9357.193961    344.940017  5  5  6 116       
PG20  -5031.825554  16972.459569  19888.003576    422.254356  5  6  5 108       
PG21  -3869.378450 -14712.930076 -21297.168445    152.051618  4  8  4  91       
PG22  18541.825847 -17927.713911  -5531.221381    513.870906  2 10  3  60       
PG23  18362.575782  11873.926856 -15185.451626     44.128011  6  5  5  95       
PG24   8643.374298  14926.929188 -20651.753340   -260.324380  4  5  4 105       
PG25  17010.128209  18378.123359   8925.640654    456.582378  6  5  6  86       
PG26  11142.979144 -11585.393634  20988.243905    236.214595  5  4  6  94       
PG27  12284.957081 -23141.235877  -2926.401365     -4.656145  8 10  5  62       
PG28  24415.685919  -5791.449458   8682.916023     82.231271  6  7  5  84       
PG29  11828.830636   8987.277169  21965.536676   -605.691617  6  6  5  86       
PG30 -26644.792094   -182.192748  -1678.387518   -503.705628  4  4  5 101       
PG31  17084.293563 -11013.672751  17135.715389   -220.202440  6  6  5  82       
PG32  18941.581340 -12602.713893 -13359.768142   -522.669319  3  7  3 102       
EOF
